{
  "type": "FeatureCollection",
  "features": [
    {
      "type": "Feature",
      "properties": {
        "norad_id": 34316,
        "name": "COSMOS 2251 DEB",
        "group": "cosmos-2251-debris",
        "lat": -33.2989505719207,
        "lon": -63.70930104386143,
        "alt_km": 593.5531345150494,
        "timestamp": "2025-12-27T14:26:30.915395+00:00",
        "meta_object_name": "COSMOS 2251 DEB",
        "meta_object_id": "1993-036NN",
        "meta_epoch": "2025-12-27T03:20:06.137088",
        "meta_mean_motion": 14.92314691,
        "meta_eccentricity": 0.00092359,
        "meta_inclination": 74.0652,
        "meta_ra_of_asc_node": 308.0347,
        "meta_arg_of_pericenter": 29.2935,
        "meta_mean_anomaly": 330.8763,
        "meta_ephemeris_type": 0,
        "meta_classification_type": "U",
        "meta_norad_cat_id": 34316,
        "meta_element_set_no": 999,
        "meta_rev_at_epoch": 89424,
        "meta_bstar": 0.0024156886,
        "meta_mean_motion_dot": 0.00024759,
        "meta_mean_motion_ddot": 0,
        "tle_line1": "1 34316U 93036NN  25361.13895992  .00024759  00000+0  24157-2 0  9998",
        "tle_line2": "2 34316  74.0652 308.0347 0009235  29.2935 330.8763 14.92314691894244"
      },
      "geometry": {
        "type": "Point",
        "coordinates": [
          -63.70930104386143,
          -33.2989505719207
        ]
      }
    },
    {
      "type": "Feature",
      "properties": {
        "norad_id": 34317,
        "name": "COSMOS 2251 DEB",
        "group": "cosmos-2251-debris",
        "lat": 47.76861010138836,
        "lon": 172.76914568347092,
        "alt_km": 1173.8967045007767,
        "timestamp": "2025-12-27T14:26:30.915405+00:00",
        "meta_object_name": "COSMOS 2251 DEB",
        "meta_object_id": "1993-036NP",
        "meta_epoch": "2025-12-27T01:48:08.563104",
        "meta_mean_motion": 13.65142089,
        "meta_eccentricity": 0.03370463,
        "meta_inclination": 73.9242,
        "meta_ra_of_asc_node": 12.1572,
        "meta_arg_of_pericenter": 358.6629,
        "meta_mean_anomaly": 60.6871,
        "meta_ephemeris_type": 0,
        "meta_classification_type": "U",
        "meta_norad_cat_id": 34317,
        "meta_element_set_no": 999,
        "meta_rev_at_epoch": 83815,
        "meta_bstar": 0.00080027012,
        "meta_mean_motion_dot": 9.33e-06,
        "meta_mean_motion_ddot": 0,
        "tle_line1": "1 34317U 93036NP  25361.07509911  .00000933  00000+0  80027-3 0  9992",
        "tle_line2": "2 34317  73.9242  12.1572 0337046 358.6629  60.6871 13.65142089838159"
      },
      "geometry": {
        "type": "Point",
        "coordinates": [
          172.76914568347092,
          47.76861010138836
        ]
      }
    },
    {
      "type": "Feature",
      "properties": {
        "norad_id": 34321,
        "name": "COSMOS 2251 DEB",
        "group": "cosmos-2251-debris",
        "lat": 29.844489994788972,
        "lon": 137.89615615832255,
        "alt_km": 731.3436841800767,
        "timestamp": "2025-12-27T14:26:30.915415+00:00",
        "meta_object_name": "COSMOS 2251 DEB",
        "meta_object_id": "1993-036NT",
        "meta_epoch": "2025-12-26T12:09:17.027712",
        "meta_mean_motion": 14.50115396,
        "meta_eccentricity": 0.0016053,
        "meta_inclination": 74.0288,
        "meta_ra_of_asc_node": 130.4961,
        "meta_arg_of_pericenter": 259.328,
        "meta_mean_anomaly": 176.2079,
        "meta_ephemeris_type": 0,
        "meta_classification_type": "U",
        "meta_norad_cat_id": 34321,
        "meta_element_set_no": 999,
        "meta_rev_at_epoch": 88686,
        "meta_bstar": 0.00063866,
        "meta_mean_motion_dot": 2.456e-05,
        "meta_mean_motion_ddot": 0,
        "tle_line1": "1 34321U 93036NT  25360.50644708  .00002456  00000+0  63866-3 0  9992",
        "tle_line2": "2 34321  74.0288 130.4961 0016053 259.3280 176.2079 14.50115396886865"
      },
      "geometry": {
        "type": "Point",
        "coordinates": [
          137.89615615832255,
          29.844489994788972
        ]
      }
    },
    {
      "type": "Feature",
      "properties": {
        "norad_id": 34323,
        "name": "COSMOS 2251 DEB",
        "group": "cosmos-2251-debris",
        "lat": -71.0038713808778,
        "lon": 37.2050391992606,
        "alt_km": 685.5738181555344,
        "timestamp": "2025-12-27T14:26:30.915425+00:00",
        "meta_object_name": "COSMOS 2251 DEB",
        "meta_object_id": "1993-036NV",
        "meta_epoch": "2025-12-27T06:58:41.735712",
        "meta_mean_motion": 14.74873691,
        "meta_eccentricity": 0.00569109,
        "meta_inclination": 73.9524,
        "meta_ra_of_asc_node": 94.5486,
        "meta_arg_of_pericenter": 134.8536,
        "meta_mean_anomaly": 294.5749,
        "meta_ephemeris_type": 0,
        "meta_classification_type": "U",
        "meta_norad_cat_id": 34323,
        "meta_element_set_no": 999,
        "meta_rev_at_epoch": 88654,
        "meta_bstar": 0.0023769776,
        "meta_mean_motion_dot": 0.00016373,
        "meta_mean_motion_ddot": 0,
        "tle_line1": "1 34323U 93036NV  25361.29076083  .00016373  00000+0  23770-2 0  9998",
        "tle_line2": "2 34323  73.9524  94.5486 0056910 134.8536 294.5749 14.74873691886545"
      },
      "geometry": {
        "type": "Point",
        "coordinates": [
          37.2050391992606,
          -71.0038713808778
        ]
      }
    },
    {
      "type": "Feature",
      "properties": {
        "norad_id": 34325,
        "name": "COSMOS 2251 DEB",
        "group": "cosmos-2251-debris",
        "lat": -13.047463932154164,
        "lon": 162.77399742854982,
        "alt_km": 1016.1670535615885,
        "timestamp": "2025-12-27T14:26:30.915435+00:00",
        "meta_object_name": "COSMOS 2251 DEB",
        "meta_object_id": "1993-036NX",
        "meta_epoch": "2025-12-26T22:08:23.930016",
        "meta_mean_motion": 14.04568575,
        "meta_eccentricity": 0.0191234,
        "meta_inclination": 73.8709,
        "meta_ra_of_asc_node": 167.8156,
        "meta_arg_of_pericenter": 182.5258,
        "meta_mean_anomaly": 330.1691,
        "meta_ephemeris_type": 0,
        "meta_classification_type": "U",
        "meta_norad_cat_id": 34325,
        "meta_element_set_no": 999,
        "meta_rev_at_epoch": 85714,
        "meta_bstar": 0.0024998,
        "meta_mean_motion_dot": 4.678e-05,
        "meta_mean_motion_ddot": 0,
        "tle_line1": "1 34325U 93036NX  25360.92249919  .00004678  00000+0  24998-2 0  9997",
        "tle_line2": "2 34325  73.8709 167.8156 0191234 182.5258 330.1691 14.04568575857141"
      },
      "geometry": {
        "type": "Point",
        "coordinates": [
          162.77399742854982,
          -13.047463932154164
        ]
      }
    },
    {
      "type": "Feature",
      "properties": {
        "norad_id": 34327,
        "name": "COSMOS 2251 DEB",
        "group": "cosmos-2251-debris",
        "lat": 14.79778222792741,
        "lon": 146.44993561807226,
        "alt_km": 587.9985216523746,
        "timestamp": "2025-12-27T14:26:30.915445+00:00",
        "meta_object_name": "COSMOS 2251 DEB",
        "meta_object_id": "1993-036NZ",
        "meta_epoch": "2025-12-27T03:51:49.563648",
        "meta_mean_motion": 14.8951992,
        "meta_eccentricity": 0.0033838,
        "meta_inclination": 73.994,
        "meta_ra_of_asc_node": 142.9841,
        "meta_arg_of_pericenter": 316.7487,
        "meta_mean_anomaly": 215.9656,
        "meta_ephemeris_type": 0,
        "meta_classification_type": "U",
        "meta_norad_cat_id": 34327,
        "meta_element_set_no": 999,
        "meta_rev_at_epoch": 89722,
        "meta_bstar": 0.0016879227,
        "meta_mean_motion_dot": 0.00016261,
        "meta_mean_motion_ddot": 0,
        "tle_line1": "1 34327U 93036NZ  25361.16099032  .00016261  00000+0  16879-2 0  9995",
        "tle_line2": "2 34327  73.9940 142.9841 0033838 316.7487 215.9656 14.89519920897223"
      },
      "geometry": {
        "type": "Point",
        "coordinates": [
          146.44993561807226,
          14.79778222792741
        ]
      }
    },
    {
      "type": "Feature",
      "properties": {
        "norad_id": 34340,
        "name": "COSMOS 2251 DEB",
        "group": "cosmos-2251-debris",
        "lat": 61.204608298684654,
        "lon": -45.55121601020936,
        "alt_km": 792.4422481180536,
        "timestamp": "2025-12-27T14:26:30.915455+00:00",
        "meta_object_name": "COSMOS 2251 DEB",
        "meta_object_id": "1993-036PN",
        "meta_epoch": "2025-12-27T04:15:40.998240",
        "meta_mean_motion": 13.79636696,
        "meta_eccentricity": 0.02845228,
        "meta_inclination": 74.079,
        "meta_ra_of_asc_node": 283.8723,
        "meta_arg_of_pericenter": 28.3291,
        "meta_mean_anomaly": 89.4114,
        "meta_ephemeris_type": 0,
        "meta_classification_type": "U",
        "meta_norad_cat_id": 34340,
        "meta_element_set_no": 999,
        "meta_rev_at_epoch": 84467,
        "meta_bstar": 0.0020938728,
        "meta_mean_motion_dot": 2.907e-05,
        "meta_mean_motion_ddot": 0,
        "tle_line1": "1 34340U 93036PN  25361.17755785  .00002907  00000+0  20939-2 0  9999",
        "tle_line2": "2 34340  74.0790 283.8723 0284522  28.3291  89.4114 13.79636696844676"
      },
      "geometry": {
        "type": "Point",
        "coordinates": [
          -45.55121601020936,
          61.204608298684654
        ]
      }
    }
  ]
}